[
  {
    "OBJECT_NAME": "STARLINK-1484",
    "OBJECT_ID": "20038AC",
    "EPOCH": "2025-11-11T08:00:03.000384",
    "MEAN_MOTION": 15.6334734,
    "ECCENTRICITY": 0.0003549,
    "INCLINATION": 53.0161,
    "RA_OF_ASC_NODE": 289.2826,
    "ARG_OF_PERICENTER": 51.2049,
    "MEAN_ANOMALY": 302.1072,
    "EPHEMERIS_TYPE": 0,
    "CLASSIFICATION_TYPE": "U",
    "NORAD_CAT_ID": 45756,
    "ELEMENT_SET_NO": 999,
    "REV_AT_EPOCH": 576,
    "BSTAR": 0.00042115,
    "MEAN_MOTION_DOT": 0.00039129,
    "MEAN_MOTION_DDOT": 0.0,
    "TLE_LINE1": "1 45756U 20038AC  25315.33336806  .00039129  00000+0  42115-3 0  9997",
    "TLE_LINE2": "2 45756  53.0161 289.2826 0003549  51.2049 302.1072 15.63347340  5763",
    "COMMENT": "Grouped by shell and plane from TLE"
  },
  {
    "OBJECT_NAME": "STARLINK-1510",
    "OBJECT_ID": "20038BG",
    "EPOCH": "2025-11-11T08:00:03.000384",
    "MEAN_MOTION": 15.74459895,
    "ECCENTRICITY": 0.0004184,
    "INCLINATION": 53.0309,
    "RA_OF_ASC_NODE": 284.401,
    "ARG_OF_PERICENTER": 83.995,
    "MEAN_ANOMALY": 302.2893,
    "EPHEMERIS_TYPE": 0,
    "CLASSIFICATION_TYPE": "U",
    "NORAD_CAT_ID": 45784,
    "ELEMENT_SET_NO": 999,
    "REV_AT_EPOCH": 597,
    "BSTAR": 0.0023175,
    "MEAN_MOTION_DOT": 0.00357853,
    "MEAN_MOTION_DDOT": 0.0,
    "TLE_LINE1": "1 45784U 20038BG  25315.33336806  .00357853  00000+0  23175-2 0  9999",
    "TLE_LINE2": "2 45784  53.0309 284.4010 0004184  83.9950 302.2893 15.74459895  5975",
    "COMMENT": "Grouped by shell and plane from TLE"
  },
  {
    "OBJECT_NAME": "STARLINK-1692",
    "OBJECT_ID": "20070L",
    "EPOCH": "2025-11-11T08:00:03.000384",
    "MEAN_MOTION": 15.80898077,
    "ECCENTRICITY": 0.0005614,
    "INCLINATION": 53.0418,
    "RA_OF_ASC_NODE": 286.4841,
    "ARG_OF_PERICENTER": 42.3624,
    "MEAN_ANOMALY": 58.7308,
    "EPHEMERIS_TYPE": 0,
    "CLASSIFICATION_TYPE": "U",
    "NORAD_CAT_ID": 46542,
    "ELEMENT_SET_NO": 999,
    "REV_AT_EPOCH": 566,
    "BSTAR": 0.0025915,
    "MEAN_MOTION_DOT": 0.00545259,
    "MEAN_MOTION_DDOT": 0.0,
    "TLE_LINE1": "1 46542U 20070L   25315.33336806  .00545259  00000+0  25915-2 0  9991",
    "TLE_LINE2": "2 46542  53.0418 286.4841 0005614  42.3624  58.7308 15.80898077  5665",
    "COMMENT": "Grouped by shell and plane from TLE"
  },
  {
    "OBJECT_NAME": "STARLINK-11300 [DTC]",
    "OBJECT_ID": "24175A",
    "EPOCH": "2025-11-11T04:26:30.979392",
    "MEAN_MOTION": 15.69728901,
    "ECCENTRICITY": 0.000115,
    "INCLINATION": 53.1581,
    "RA_OF_ASC_NODE": 280.4771,
    "ARG_OF_PERICENTER": 90.6932,
    "MEAN_ANOMALY": 269.4218,
    "EPHEMERIS_TYPE": 0,
    "CLASSIFICATION_TYPE": "U",
    "NORAD_CAT_ID": 61243,
    "ELEMENT_SET_NO": 999,
    "REV_AT_EPOCH": 6475,
    "BSTAR": 7.1407e-05,
    "MEAN_MOTION_DOT": 8.077e-05,
    "MEAN_MOTION_DDOT": 0.0,
    "TLE_LINE1": "1 61243U 24175A   25315.18508078  .00008077  00000+0  71407-4 0  9992",
    "TLE_LINE2": "2 61243  53.1581 280.4771 0001150  90.6932 269.4218 15.69728901 64758",
    "COMMENT": "Grouped by shell and plane from TLE"
  },
  {
    "OBJECT_NAME": "STARLINK-11276 [DTC]",
    "OBJECT_ID": "24175B",
    "EPOCH": "2025-11-11T04:19:26.294016",
    "MEAN_MOTION": 15.69714952,
    "ECCENTRICITY": 0.0001782,
    "INCLINATION": 53.1593,
    "RA_OF_ASC_NODE": 280.4429,
    "ARG_OF_PERICENTER": 108.0098,
    "MEAN_ANOMALY": 252.1115,
    "EPHEMERIS_TYPE": 0,
    "CLASSIFICATION_TYPE": "U",
    "NORAD_CAT_ID": 61244,
    "ELEMENT_SET_NO": 999,
    "REV_AT_EPOCH": 6475,
    "BSTAR": 6.193999999999999e-05,
    "MEAN_MOTION_DOT": 6.922e-05,
    "MEAN_MOTION_DDOT": 0.0,
    "TLE_LINE1": "1 61244U 24175B   25315.18016544  .00006922  00000+0  61940-4 0  9993",
    "TLE_LINE2": "2 61244  53.1593 280.4429 0001782 108.0098 252.1115 15.69714952 64756",
    "COMMENT": "Grouped by shell and plane from TLE"
  },
  {
    "OBJECT_NAME": "STARLINK-11280 [DTC]",
    "OBJECT_ID": "24175C",
    "EPOCH": "2025-11-11T04:05:19.925664",
    "MEAN_MOTION": 15.6970728,
    "ECCENTRICITY": 0.0001679,
    "INCLINATION": 53.159,
    "RA_OF_ASC_NODE": 280.3859,
    "ARG_OF_PERICENTER": 95.171,
    "MEAN_ANOMALY": 264.9499,
    "EPHEMERIS_TYPE": 0,
    "CLASSIFICATION_TYPE": "U",
    "NORAD_CAT_ID": 61245,
    "ELEMENT_SET_NO": 999,
    "REV_AT_EPOCH": 6475,
    "BSTAR": 3.8915e-05,
    "MEAN_MOTION_DOT": 4.127e-05,
    "MEAN_MOTION_DDOT": 0.0,
    "TLE_LINE1": "1 61245U 24175C   25315.17036951  .00004127  00000+0  38915-4 0  9998",
    "TLE_LINE2": "2 61245  53.1590 280.3859 0001679  95.1710 264.9499 15.69707280 64754",
    "COMMENT": "Grouped by shell and plane from TLE"
  },
  {
    "OBJECT_NAME": "STARLINK-11308 [DTC]",
    "OBJECT_ID": "24175D",
    "EPOCH": "2025-11-11T04:12:24.224832",
    "MEAN_MOTION": 15.69700222,
    "ECCENTRICITY": 0.0001096,
    "INCLINATION": 53.1597,
    "RA_OF_ASC_NODE": 280.4104,
    "ARG_OF_PERICENTER": 98.3022,
    "MEAN_ANOMALY": 261.812,
    "EPHEMERIS_TYPE": 0,
    "CLASSIFICATION_TYPE": "U",
    "NORAD_CAT_ID": 61246,
    "ELEMENT_SET_NO": 999,
    "REV_AT_EPOCH": 6475,
    "BSTAR": 1.2499000000000002e-05,
    "MEAN_MOTION_DOT": 9.25e-06,
    "MEAN_MOTION_DDOT": 0.0,
    "TLE_LINE1": "1 61246U 24175D   25315.17528038  .00000925  00000+0  12499-4 0  9992",
    "TLE_LINE2": "2 61246  53.1597 280.4104 0001096  98.3022 261.8120 15.69700222 64756",
    "COMMENT": "Grouped by shell and plane from TLE"
  },
  {
    "OBJECT_NAME": "STARLINK-11319 [DTC]",
    "OBJECT_ID": "24175J",
    "EPOCH": "2025-11-11T06:33:31.781664",
    "MEAN_MOTION": 15.69704457,
    "ECCENTRICITY": 0.000127,
    "INCLINATION": 53.1589,
    "RA_OF_ASC_NODE": 280.3213,
    "ARG_OF_PERICENTER": 71.2198,
    "MEAN_ANOMALY": 288.8958,
    "EPHEMERIS_TYPE": 0,
    "CLASSIFICATION_TYPE": "U",
    "NORAD_CAT_ID": 61251,
    "ELEMENT_SET_NO": 999,
    "REV_AT_EPOCH": 6476,
    "BSTAR": 1.6353e-05,
    "MEAN_MOTION_DOT": 1.392e-05,
    "MEAN_MOTION_DDOT": 0.0,
    "TLE_LINE1": "1 61251U 24175J   25315.27328451  .00001392  00000+0  16353-4 0  9998",
    "TLE_LINE2": "2 61251  53.1589 280.3213 0001270  71.2198 288.8958 15.69704457 64764",
    "COMMENT": "Grouped by shell and plane from TLE"
  },
  {
    "OBJECT_NAME": "STARLINK-11318 [DTC]",
    "OBJECT_ID": "24175K",
    "EPOCH": "2025-11-11T06:26:26.905344",
    "MEAN_MOTION": 15.69707519,
    "ECCENTRICITY": 9.81e-05,
    "INCLINATION": 53.1593,
    "RA_OF_ASC_NODE": 280.2892,
    "ARG_OF_PERICENTER": 70.5202,
    "MEAN_ANOMALY": 289.5922,
    "EPHEMERIS_TYPE": 0,
    "CLASSIFICATION_TYPE": "U",
    "NORAD_CAT_ID": 61252,
    "ELEMENT_SET_NO": 999,
    "REV_AT_EPOCH": 6593,
    "BSTAR": 5.5092e-05,
    "MEAN_MOTION_DOT": 6.09e-05,
    "MEAN_MOTION_DDOT": 0.0,
    "TLE_LINE1": "1 61252U 24175K   25315.26836696  .00006090  00000+0  55092-4 0  9996",
    "TLE_LINE2": "2 61252  53.1593 280.2892 0000981  70.5202 289.5922 15.69707519 65939",
    "COMMENT": "Grouped by shell and plane from TLE"
  },
  {
    "OBJECT_NAME": "STARLINK-11311 [DTC]",
    "OBJECT_ID": "24175L",
    "EPOCH": "2025-11-11T06:19:24.973536",
    "MEAN_MOTION": 15.69693317,
    "ECCENTRICITY": 0.0001089,
    "INCLINATION": 53.1579,
    "RA_OF_ASC_NODE": 280.2548,
    "ARG_OF_PERICENTER": 74.9316,
    "MEAN_ANOMALY": 285.1822,
    "EPHEMERIS_TYPE": 0,
    "CLASSIFICATION_TYPE": "U",
    "NORAD_CAT_ID": 61253,
    "ELEMENT_SET_NO": 999,
    "REV_AT_EPOCH": 6597,
    "BSTAR": 1.9068e-05,
    "MEAN_MOTION_DOT": 1.721e-05,
    "MEAN_MOTION_DDOT": 0.0,
    "TLE_LINE1": "1 61253U 24175L   25315.26348349  .00001721  00000+0  19068-4 0  9999",
    "TLE_LINE2": "2 61253  53.1579 280.2548 0001089  74.9316 285.1822 15.69693317 65971",
    "COMMENT": "Grouped by shell and plane from TLE"
  },
  {
    "OBJECT_NAME": "STARLINK-11306 [DTC]",
    "OBJECT_ID": "24175M",
    "EPOCH": "2025-11-11T04:40:37.357248",
    "MEAN_MOTION": 15.69733616,
    "ECCENTRICITY": 0.0001116,
    "INCLINATION": 53.1593,
    "RA_OF_ASC_NODE": 280.5355,
    "ARG_OF_PERICENTER": 85.0674,
    "MEAN_ANOMALY": 275.0471,
    "EPHEMERIS_TYPE": 0,
    "CLASSIFICATION_TYPE": "U",
    "NORAD_CAT_ID": 61254,
    "ELEMENT_SET_NO": 999,
    "REV_AT_EPOCH": 6595,
    "BSTAR": 3.6043e-05,
    "MEAN_MOTION_DOT": 3.784e-05,
    "MEAN_MOTION_DDOT": 0.0,
    "TLE_LINE1": "1 61254U 24175M   25315.19487682  .00003784  00000+0  36043-4 0  9999",
    "TLE_LINE2": "2 61254  53.1593 280.5355 0001116  85.0674 275.0471 15.69733616 65951",
    "COMMENT": "Grouped by shell and plane from TLE"
  },
  {
    "OBJECT_NAME": "STARLINK-11313 [DTC]",
    "OBJECT_ID": "24175N",
    "EPOCH": "2025-11-11T04:33:33.828768",
    "MEAN_MOTION": 15.69723917,
    "ECCENTRICITY": 0.0001604,
    "INCLINATION": 53.1593,
    "RA_OF_ASC_NODE": 280.5045,
    "ARG_OF_PERICENTER": 123.4471,
    "MEAN_ANOMALY": 236.67,
    "EPHEMERIS_TYPE": 0,
    "CLASSIFICATION_TYPE": "U",
    "NORAD_CAT_ID": 61255,
    "ELEMENT_SET_NO": 999,
    "REV_AT_EPOCH": 6475,
    "BSTAR": 4.684400000000001e-05,
    "MEAN_MOTION_DOT": 5.092e-05,
    "MEAN_MOTION_DDOT": 0.0,
    "TLE_LINE1": "1 61255U 24175N   25315.18997487  .00005092  00000+0  46844-4 0  9992",
    "TLE_LINE2": "2 61255  53.1593 280.5045 0001604 123.4471 236.6700 15.69723917 64750",
    "COMMENT": "Grouped by shell and plane from TLE"
  },
  {
    "OBJECT_NAME": "STARLINK-11677 [DTC]",
    "OBJECT_ID": "25089A",
    "EPOCH": "2025-11-11T01:18:01.146816",
    "MEAN_MOTION": 15.70901165,
    "ECCENTRICITY": 6.13e-05,
    "INCLINATION": 42.9974,
    "RA_OF_ASC_NODE": 287.664,
    "ARG_OF_PERICENTER": 330.4473,
    "MEAN_ANOMALY": 29.636,
    "EPHEMERIS_TYPE": 0,
    "CLASSIFICATION_TYPE": "U",
    "NORAD_CAT_ID": 63751,
    "ELEMENT_SET_NO": 999,
    "REV_AT_EPOCH": 3147,
    "BSTAR": 0.0021337,
    "MEAN_MOTION_DOT": 0.00283623,
    "MEAN_MOTION_DDOT": 0.0,
    "TLE_LINE1": "1 63751U 25089A   25315.05417994  .00283623  00000+0  21337-2 0  9992",
    "TLE_LINE2": "2 63751  42.9974 287.6640 0000613 330.4473  29.6360 15.70901165 31472",
    "COMMENT": "Grouped by shell and plane from TLE"
  }
]